{
  "type": "FeatureCollection",
  "features": [
    {
      "type": "Feature",
      "properties": {
        "norad_id": 33805,
        "name": "COSMOS 2251 DEB",
        "group": "cosmos-2251-debris",
        "lat": 45.95228296049618,
        "lon": -23.529531480712663,
        "alt_km": 703.6879177083038,
        "timestamp": "2025-12-08T13:49:32.186682+00:00",
        "meta_object_name": "COSMOS 2251 DEB",
        "meta_object_id": "1993-036AW",
        "meta_epoch": "2025-12-08T07:00:54.543744",
        "meta_mean_motion": 14.57840732,
        "meta_eccentricity": 0.00603572,
        "meta_inclination": 74.0317,
        "meta_ra_of_asc_node": 319.7916,
        "meta_arg_of_pericenter": 150.037,
        "meta_mean_anomaly": 210.4272,
        "meta_ephemeris_type": 0,
        "meta_classification_type": "U",
        "meta_norad_cat_id": 33805,
        "meta_element_set_no": 999,
        "meta_rev_at_epoch": 89162,
        "meta_bstar": 0.00044531142,
        "meta_mean_motion_dot": 2.061e-05,
        "meta_mean_motion_ddot": 0,
        "tle_line1": "1 33805U 93036AW  25342.29229796  .00002061  00000+0  44531-3 0  9990",
        "tle_line2": "2 33805  74.0317 319.7916 0060357 150.0370 210.4272 14.57840732891621"
      },
      "geometry": {
        "type": "Point",
        "coordinates": [
          -23.529531480712663,
          45.95228296049618
        ]
      }
    },
    {
      "type": "Feature",
      "properties": {
        "norad_id": 33811,
        "name": "COSMOS 2251 DEB",
        "group": "cosmos-2251-debris",
        "lat": -65.81590159173047,
        "lon": -88.93307180994512,
        "alt_km": 563.4344117227884,
        "timestamp": "2025-12-08T13:49:32.186693+00:00",
        "meta_object_name": "COSMOS 2251 DEB",
        "meta_object_id": "1993-036BC",
        "meta_epoch": "2025-12-08T06:39:30.341664",
        "meta_mean_motion": 15.05046186,
        "meta_eccentricity": 0.00307551,
        "meta_inclination": 73.8382,
        "meta_ra_of_asc_node": 311.9089,
        "meta_arg_of_pericenter": 33.3582,
        "meta_mean_anomaly": 77.8873,
        "meta_ephemeris_type": 0,
        "meta_classification_type": "U",
        "meta_norad_cat_id": 33811,
        "meta_element_set_no": 999,
        "meta_rev_at_epoch": 89951,
        "meta_bstar": 0.0015091313,
        "meta_mean_motion_dot": 0.00021697,
        "meta_mean_motion_ddot": 0,
        "tle_line1": "1 33811U 93036BC  25342.27743451  .00021697  00000+0  15091-2 0  9998",
        "tle_line2": "2 33811  73.8382 311.9089 0030755  33.3582  77.8873 15.05046186899512"
      },
      "geometry": {
        "type": "Point",
        "coordinates": [
          -88.93307180994512,
          -65.81590159173047
        ]
      }
    },
    {
      "type": "Feature",
      "properties": {
        "norad_id": 33815,
        "name": "COSMOS 2251 DEB",
        "group": "cosmos-2251-debris",
        "lat": 3.8008096489369825,
        "lon": 4.2228636237564485,
        "alt_km": 517.1380145730418,
        "timestamp": "2025-12-08T13:49:32.186704+00:00",
        "meta_object_name": "COSMOS 2251 DEB",
        "meta_object_id": "1993-036BG",
        "meta_epoch": "2025-12-08T00:56:45.883680",
        "meta_mean_motion": 15.16404509,
        "meta_eccentricity": 0.00035295,
        "meta_inclination": 73.9535,
        "meta_ra_of_asc_node": 186.4424,
        "meta_arg_of_pericenter": 232.7391,
        "meta_mean_anomaly": 254.7653,
        "meta_ephemeris_type": 0,
        "meta_classification_type": "U",
        "meta_norad_cat_id": 33815,
        "meta_element_set_no": 999,
        "meta_rev_at_epoch": 88299,
        "meta_bstar": 0.0063573472,
        "meta_mean_motion_dot": 0.00125714,
        "meta_mean_motion_ddot": 0,
        "tle_line1": "1 33815U 93036BG  25342.03941995  .00125714  00000+0  63573-2 0  9992",
        "tle_line2": "2 33815  73.9535 186.4424 0003529 232.7391 254.7653 15.16404509882992"
      },
      "geometry": {
        "type": "Point",
        "coordinates": [
          4.2228636237564485,
          3.8008096489369825
        ]
      }
    },
    {
      "type": "Feature",
      "properties": {
        "norad_id": 33816,
        "name": "COSMOS 2251 DEB",
        "group": "cosmos-2251-debris",
        "lat": -73.75848716912236,
        "lon": 15.102258398303988,
        "alt_km": 1115.2200810448903,
        "timestamp": "2025-12-08T13:49:32.186715+00:00",
        "meta_object_name": "COSMOS 2251 DEB",
        "meta_object_id": "1993-036BH",
        "meta_epoch": "2025-12-07T17:26:26.699424",
        "meta_mean_motion": 13.81773006,
        "meta_eccentricity": 0.02650074,
        "meta_inclination": 73.8944,
        "meta_ra_of_asc_node": 113.892,
        "meta_arg_of_pericenter": 127.7989,
        "meta_mean_anomaly": 234.7453,
        "meta_ephemeris_type": 0,
        "meta_classification_type": "U",
        "meta_norad_cat_id": 33816,
        "meta_element_set_no": 999,
        "meta_rev_at_epoch": 84604,
        "meta_bstar": 0.00094699844,
        "meta_mean_motion_dot": 1.302e-05,
        "meta_mean_motion_ddot": 0,
        "tle_line1": "1 33816U 93036BH  25341.72669791  .00001302  00000+0  94700-3 0  9992",
        "tle_line2": "2 33816  73.8944 113.8920 0265007 127.7989 234.7453 13.81773006846041"
      },
      "geometry": {
        "type": "Point",
        "coordinates": [
          15.102258398303988,
          -73.75848716912236
        ]
      }
    },
    {
      "type": "Feature",
      "properties": {
        "norad_id": 33818,
        "name": "COSMOS 2251 DEB",
        "group": "cosmos-2251-debris",
        "lat": 39.10783205718782,
        "lon": -18.576760836554026,
        "alt_km": 509.3814772963442,
        "timestamp": "2025-12-08T13:49:32.186726+00:00",
        "meta_object_name": "COSMOS 2251 DEB",
        "meta_object_id": "1993-036BK",
        "meta_epoch": "2025-12-08T07:38:01.796640",
        "meta_mean_motion": 15.11972278,
        "meta_eccentricity": 0.00281556,
        "meta_inclination": 74.0753,
        "meta_ra_of_asc_node": 175.3767,
        "meta_arg_of_pericenter": 165.7703,
        "meta_mean_anomaly": 9.6209,
        "meta_ephemeris_type": 0,
        "meta_classification_type": "U",
        "meta_norad_cat_id": 33818,
        "meta_element_set_no": 999,
        "meta_rev_at_epoch": 89795,
        "meta_bstar": 0.0024803803,
        "meta_mean_motion_dot": 0.00043189,
        "meta_mean_motion_ddot": 0,
        "tle_line1": "1 33818U 93036BK  25342.31807635  .00043189  00000+0  24804-2 0  9997",
        "tle_line2": "2 33818  74.0753 175.3767 0028155 165.7703   9.6209 15.11972278897954"
      },
      "geometry": {
        "type": "Point",
        "coordinates": [
          -18.576760836554026,
          39.10783205718782
        ]
      }
    },
    {
      "type": "Feature",
      "properties": {
        "norad_id": 33819,
        "name": "COSMOS 2251 DEB",
        "group": "cosmos-2251-debris",
        "lat": 19.78794693044518,
        "lon": -136.76775492175946,
        "alt_km": 751.1670038621696,
        "timestamp": "2025-12-08T13:49:32.186737+00:00",
        "meta_object_name": "COSMOS 2251 DEB",
        "meta_object_id": "1993-036BL",
        "meta_epoch": "2025-12-08T02:33:23.647680",
        "meta_mean_motion": 14.32197842,
        "meta_eccentricity": 0.0088893,
        "meta_inclination": 74.1793,
        "meta_ra_of_asc_node": 218.226,
        "meta_arg_of_pericenter": 80.9641,
        "meta_mean_anomaly": 40.6702,
        "meta_ephemeris_type": 0,
        "meta_classification_type": "U",
        "meta_norad_cat_id": 33819,
        "meta_element_set_no": 999,
        "meta_rev_at_epoch": 87429,
        "meta_bstar": 0.00087236618,
        "meta_mean_motion_dot": 2.431e-05,
        "meta_mean_motion_ddot": 0,
        "tle_line1": "1 33819U 93036BL  25342.10652370  .00002431  00000+0  87237-3 0  9994",
        "tle_line2": "2 33819  74.1793 218.2260 0088893  80.9641  40.6702 14.32197842874292"
      },
      "geometry": {
        "type": "Point",
        "coordinates": [
          -136.76775492175946,
          19.78794693044518
        ]
      }
    },
    {
      "type": "Feature",
      "properties": {
        "norad_id": 33821,
        "name": "COSMOS 2251 DEB",
        "group": "cosmos-2251-debris",
        "lat": 66.59343074038355,
        "lon": -69.78531355290639,
        "alt_km": 476.94368194335857,
        "timestamp": "2025-12-08T13:49:32.186747+00:00",
        "meta_object_name": "COSMOS 2251 DEB",
        "meta_object_id": "1993-036BN",
        "meta_epoch": "2025-12-07T21:36:29.624832",
        "meta_mean_motion": 15.24869575,
        "meta_eccentricity": 0.00530994,
        "meta_inclination": 74.0293,
        "meta_ra_of_asc_node": 153.0642,
        "meta_arg_of_pericenter": 187.7564,
        "meta_mean_anomaly": 172.2822,
        "meta_ephemeris_type": 0,
        "meta_classification_type": "U",
        "meta_norad_cat_id": 33821,
        "meta_element_set_no": 999,
        "meta_rev_at_epoch": 74927,
        "meta_bstar": 0.0014849719,
        "meta_mean_motion_dot": 0.00038592,
        "meta_mean_motion_ddot": 0,
        "tle_line1": "1 33821U 93036BN  25341.90034288  .00038592  00000+0  14850-2 0  9993",
        "tle_line2": "2 33821  74.0293 153.0642 0053099 187.7564 172.2822 15.24869575749274"
      },
      "geometry": {
        "type": "Point",
        "coordinates": [
          -69.78531355290639,
          66.59343074038355
        ]
      }
    }
  ]
}